[{"OBJECT_NAME":"STARLINK-1551","OBJECT_ID":"2020-055BA","EPOCH":"2025-09-02T04:42:03.476448","MEAN_MOTION":15.0639465,"ECCENTRICITY":0.00014323,"INCLINATION":53.0528,"RA_OF_ASC_NODE":222.8013,"ARG_OF_PERICENTER":88.8629,"MEAN_ANOMALY":271.2524,"EPHEMERIS_TYPE":0,"CLASSIFICATION_TYPE":"U","NORAD_CAT_ID":46075,"ELEMENT_SET_NO":999,"REV_AT_EPOCH":28089,"BSTAR":3.2007839e-5,"MEAN_MOTION_DOT":1.95e-6,"MEAN_MOTION_DDOT":0},{"OBJECT_NAME":"STARLINK-1552","OBJECT_ID":"2020-055BB","EPOCH":"2025-09-02T05:19:12.172224","MEAN_MOTION":15.06408928,"ECCENTRICITY":0.00013643,"INCLINATION":53.0544,"RA_OF_ASC_NODE":222.6823,"ARG_OF_PERICENTER":86.0875,"MEAN_ANOMALY":274.027,"EPHEMERIS_TYPE":0,"CLASSIFICATION_TYPE":"U","NORAD_CAT_ID":46076,"ELEMENT_SET_NO":999,"REV_AT_EPOCH":28088,"BSTAR":0.00014491267,"MEAN_MOTION_DOT":1.878e-5,"MEAN_MOTION_DDOT":0},{"OBJECT_NAME":"STARLINK-1559","OBJECT_ID":"2020-055BC","EPOCH":"2025-09-01T10:49:55.407936","MEAN_MOTION":15.12969126,"ECCENTRICITY":0.00014003,"INCLINATION":53.0501,"RA_OF_ASC_NODE":223.112,"ARG_OF_PERICENTER":106.5567,"MEAN_ANOMALY":253.5578,"EPHEMERIS_TYPE":0,"CLASSIFICATION_TYPE":"U","NORAD_CAT_ID":46077,"ELEMENT_SET_NO":999,"REV_AT_EPOCH":28078,"BSTAR":0.0027562074,"MEAN_MOTION_DOT":0.0004922,"MEAN_MOTION_DDOT":0},{"OBJECT_NAME":"STARLINK-1566","OBJECT_ID":"2020-055BE","EPOCH":"2025-09-01T23:23:35.404512","MEAN_MOTION":15.06402475,"ECCENTRICITY":0.00013229,"INCLINATION":53.0546,"RA_OF_ASC_NODE":223.7918,"ARG_OF_PERICENTER":91.5228,"MEAN_ANOMALY":268.5913,"EPHEMERIS_TYPE":0,"CLASSIFICATION_TYPE":"U","NORAD_CAT_ID":46079,"ELEMENT_SET_NO":999,"REV_AT_EPOCH":28086,"BSTAR":9.7818219e-5,"MEAN_MOTION_DOT":1.176e-5,"MEAN_MOTION_DDOT":0},{"OBJECT_NAME":"STARLINK-1568","OBJECT_ID":"2020-055BF","EPOCH":"2025-09-02T04:07:42.196224","MEAN_MOTION":15.27598847,"ECCENTRICITY":0.00020202,"INCLINATION":53.0648,"RA_OF_ASC_NODE":200.3276,"ARG_OF_PERICENTER":46.3189,"MEAN_ANOMALY":313.7976,"EPHEMERIS_TYPE":0,"CLASSIFICATION_TYPE":"U","NORAD_CAT_ID":46080,"ELEMENT_SET_NO":999,"REV_AT_EPOCH":28119,"BSTAR":0.0031384149,"MEAN_MOTION_DOT":0.00086484,"MEAN_MOTION_DDOT":0},{"OBJECT_NAME":"STARLINK-1578","OBJECT_ID":"2020-055BH","EPOCH":"2025-09-01T22:09:17.660448","MEAN_MOTION":15.0639702,"ECCENTRICITY":0.00014434,"INCLINATION":53.0553,"RA_OF_ASC_NODE":224.0283,"ARG_OF_PERICENTER":94.9256,"MEAN_ANOMALY":265.1898,"EPHEMERIS_TYPE":0,"CLASSIFICATION_TYPE":"U","NORAD_CAT_ID":46082,"ELEMENT_SET_NO":999,"REV_AT_EPOCH":28085,"BSTAR":-4.707153e-6,"MEAN_MOTION_DOT":-3.52e-6,"MEAN_MOTION_DDOT":0},{"OBJECT_NAME":"STARLINK-1579","OBJECT_ID":"2020-055BJ","EPOCH":"2025-09-02T05:23:09.962304","MEAN_MOTION":15.06406419,"ECCENTRICITY":0.00012046,"INCLINATION":53.0546,"RA_OF_ASC_NODE":222.6594,"ARG_OF_PERICENTER":95.1281,"MEAN_ANOMALY":264.9845,"EPHEMERIS_TYPE":0,"CLASSIFICATION_TYPE":"U","NORAD_CAT_ID":46083,"ELEMENT_SET_NO":999,"REV_AT_EPOCH":28089,"BSTAR":-1.0932943e-5,"MEAN_MOTION_DOT":-4.44e-6,"MEAN_MOTION_DDOT":0},{"OBJECT_NAME":"STARLINK-1585","OBJECT_ID":"2020-057A","EPOCH":"2025-09-02T04:36:45.096768","MEAN_MOTION":15.06399683,"ECCENTRICITY":0.00013511,"INCLINATION":53.0553,"RA_OF_ASC_NODE":62.8179,"ARG_OF_PERICENTER":89.5326,"MEAN_ANOMALY":270.5818,"EPHEMERIS_TYPE":0,"CLASSIFICATION_TYPE":"U","NORAD_CAT_ID":46117,"ELEMENT_SET_NO":999,"REV_AT_EPOCH":27793,"BSTAR":0.00013684125,"MEAN_MOTION_DOT":1.757e-5,"MEAN_MOTION_DDOT":0},{"OBJECT_NAME":"STARLINK-1593","OBJECT_ID":"2020-057C","EPOCH":"2025-09-01T19:48:42.860448","MEAN_MOTION":15.0639829,"ECCENTRICITY":0.00013203,"INCLINATION":53.055,"RA_OF_ASC_NODE":84.8102,"ARG_OF_PERICENTER":88.8042,"MEAN_ANOMALY":271.3099,"EPHEMERIS_TYPE":0,"CLASSIFICATION_TYPE":"U","NORAD_CAT_ID":46119,"ELEMENT_SET_NO":999,"REV_AT_EPOCH":27885,"BSTAR":9.2221843e-5,"MEAN_MOTION_DOT":1.092e-5,"MEAN_MOTION_DDOT":0},{"OBJECT_NAME":"STARLINK-1601","OBJECT_ID":"2020-057D","EPOCH":"2025-09-01T23:26:15.648000","MEAN_MOTION":15.06395739,"ECCENTRICITY":0.00014503,"INCLINATION":53.0536,"RA_OF_ASC_NODE":83.7842,"ARG_OF_PERICENTER":88.6077,"MEAN_ANOMALY":271.5078,"EPHEMERIS_TYPE":0,"CLASSIFICATION_TYPE":"U","NORAD_CAT_ID":46120,"ELEMENT_SET_NO":999,"REV_AT_EPOCH":27890,"BSTAR":0.00024245171,"MEAN_MOTION_DOT":3.331e-5,"MEAN_MOTION_DDOT":0},{"OBJECT_NAME":"STARLINK-1605","OBJECT_ID":"2020-057G","EPOCH":"2025-09-02T06:00:02.999808","MEAN_MOTION":15.34080749,"ECCENTRICITY":0.00021208,"INCLINATION":53.0543,"RA_OF_ASC_NODE":39.9019,"ARG_OF_PERICENTER":282.7331,"MEAN_ANOMALY":245.8124,"EPHEMERIS_TYPE":0,"CLASSIFICATION_TYPE":"U","NORAD_CAT_ID":46123,"ELEMENT_SET_NO":999,"REV_AT_EPOCH":584,"BSTAR":0.005300701,"MEAN_MOTION_DOT":0.00181268,"MEAN_MOTION_DDOT":0},{"OBJECT_NAME":"STARLINK-1614","OBJECT_ID":"2020-057H","EPOCH":"2025-09-02T06:00:02.999808","MEAN_MOTION":15.34216957,"ECCENTRICITY":0.00022758,"INCLINATION":53.0543,"RA_OF_ASC_NODE":39.8276,"ARG_OF_PERICENTER":298.7527,"MEAN_ANOMALY":227.3084,"EPHEMERIS_TYPE":0,"CLASSIFICATION_TYPE":"U","NORAD_CAT_ID":46124,"ELEMENT_SET_NO":999,"REV_AT_EPOCH":544,"BSTAR":0.0052923383,"MEAN_MOTION_DOT":0.00181778,"MEAN_MOTION_DDOT":0},{"OBJECT_NAME":"STARLINK-1618","OBJECT_ID":"2020-057J","EPOCH":"2025-09-02T06:00:02.999808","MEAN_MOTION":15.9436118,"ECCENTRICITY":0.00023753,"INCLINATION":53.0407,"RA_OF_ASC_NODE":36.7307,"ARG_OF_PERICENTER":319.1312,"MEAN_ANOMALY":45.918,"EPHEMERIS_TYPE":0,"CLASSIFICATION_TYPE":"U","NORAD_CAT_ID":46125,"ELEMENT_SET_NO":999,"REV_AT_EPOCH":605,"BSTAR":0.001465688,"MEAN_MOTION_DOT":0.00560311,"MEAN_MOTION_DDOT":0.00013857583},{"OBJECT_NAME":"STARLINK-1621","OBJECT_ID":"2020-057L","EPOCH":"2025-09-01T19:51:21.683520","MEAN_MOTION":15.0633916,"ECCENTRICITY":0.00016412,"INCLINATION":53.0551,"RA_OF_ASC_NODE":64.4513,"ARG_OF_PERICENTER":88.0106,"MEAN_ANOMALY":272.1071,"EPHEMERIS_TYPE":0,"CLASSIFICATION_TYPE":"U","NORAD_CAT_ID":46127,"ELEMENT_SET_NO":999,"REV_AT_EPOCH":27787,"BSTAR":-0.00035299675,"MEAN_MOTION_DOT":-5.527e-5,"MEAN_MOTION_DDOT":0},{"OBJECT_NAME":"STARLINK-1622","OBJECT_ID":"2020-057M","EPOCH":"2025-09-02T03:13:41.798784","MEAN_MOTION":15.23290913,"ECCENTRICITY":0.0004762,"INCLINATION":53.0404,"RA_OF_ASC_NODE":36.9316,"ARG_OF_PERICENTER":230.7799,"MEAN_ANOMALY":129.2775,"EPHEMERIS_TYPE":0,"CLASSIFICATION_TYPE":"U","NORAD_CAT_ID":46128,"ELEMENT_SET_NO":999,"REV_AT_EPOCH":27829,"BSTAR":0.0056222327,"MEAN_MOTION_DOT":0.00137319,"MEAN_MOTION_DDOT":0},{"OBJECT_NAME":"STARLINK-1623","OBJECT_ID":"2020-057N","EPOCH":"2025-09-02T03:51:37.757088","MEAN_MOTION":15.06412865,"ECCENTRICITY":0.00011803,"INCLINATION":53.0546,"RA_OF_ASC_NODE":42.9591,"ARG_OF_PERICENTER":94.0901,"MEAN_ANOMALY":266.0223,"EPHEMERIS_TYPE":0,"CLASSIFICATION_TYPE":"U","NORAD_CAT_ID":46129,"ELEMENT_SET_NO":999,"REV_AT_EPOCH":27821,"BSTAR":0.00047473455,"MEAN_MOTION_DOT":6.799e-5,"MEAN_MOTION_DDOT":0}]
