STARLINK-1551           
1 46075U 20055BA  25245.19587357  .00000195  00000+0  32008-4 0  9998
2 46075  53.0528 222.8013 0001432  88.8629 271.2524 15.06394650280895
STARLINK-1552           
1 46076U 20055BB  25245.22166866  .00001878  00000+0  14491-3 0  9995
2 46076  53.0544 222.6823 0001364  86.0875 274.0270 15.06408928280880
STARLINK-1559           
1 46077U 20055BC  25244.45133574  .00049220  00000+0  27562-2 0  9995
2 46077  53.0501 223.1120 0001400 106.5567 253.5578 15.12969126280788
STARLINK-1566           
1 46079U 20055BE  25244.97471533  .00001176  00000+0  97818-4 0  9995
2 46079  53.0546 223.7918 0001322  91.5228 268.5913 15.06402475280860
STARLINK-1568           
1 46080U 20055BF  25245.17201616  .00086484  00000+0  31384-2 0  9992
2 46080  53.0648 200.3276 0002020  46.3189 313.7976 15.27598847281194
STARLINK-1578           
1 46082U 20055BH  25244.92312107 -.00000352  00000+0 -47072-5 0  9990
2 46082  53.0553 224.0283 0001443  94.9256 265.1898 15.06397020280856
STARLINK-1579           
1 46083U 20055BJ  25245.22442086 -.00000444  00000+0 -10933-4 0  9992
2 46083  53.0546 222.6594 0001204  95.1281 264.9845 15.06406419280890
STARLINK-1585           
1 46117U 20057A   25245.19218862  .00001757  00000+0  13684-3 0  9992
2 46117  53.0553  62.8179 0001351  89.5326 270.5818 15.06399683277937
STARLINK-1593           
1 46119U 20057C   25244.82549607  .00001092  00000+0  92222-4 0  9995
2 46119  53.0550  84.8102 0001320  88.8042 271.3099 15.06398290278854
STARLINK-1601           
1 46120U 20057D   25244.97657000  .00003331  00000+0  24245-3 0  9997
2 46120  53.0536  83.7842 0001450  88.6077 271.5078 15.06395739278909
STARLINK-1605           
1 46123U 20057G   25245.25003472  .00181268  00000+0  53007-2 0  9993
2 46123  53.0543  39.9019 0002120 282.7331 245.8124 15.34080749  5844
STARLINK-1614           
1 46124U 20057H   25245.25003472  .00181778  00000+0  52923-2 0  9996
2 46124  53.0543  39.8276 0002275 298.7527 227.3084 15.34216957  5442
STARLINK-1618           
1 46125U 20057J   25245.25003472  .00560311  13858-3  14657-2 0  9992
2 46125  53.0407  36.7307 0002375 319.1312  45.9180 15.94361180  6058
STARLINK-1621           
1 46127U 20057L   25244.82733430 -.00005527  00000+0 -35300-3 0  9995
2 46127  53.0551  64.4513 0001641  88.0106 272.1071 15.06339160277874
STARLINK-1622           
1 46128U 20057M   25245.13451156  .00137319  00000+0  56222-2 0  9991
2 46128  53.0404  36.9316 0004762 230.7799 129.2775 15.23290913278299
STARLINK-1623           
1 46129U 20057N   25245.16085367  .00006799  00000+0  47473-3 0  9998
2 46129  53.0546  42.9591 0001180  94.0901 266.0223 15.06412865278219
